[{"OBJECT_NAME":"YUNHAI-3 01","OBJECT_ID":"2022-151A","EPOCH":"2026-03-09T23:02:06.865152","MEAN_MOTION":14.13435801,"ECCENTRICITY":0.00017147,"INCLINATION":98.8209,"RA_OF_ASC_NODE":77.7687,"ARG_OF_PERICENTER":54.4546,"MEAN_ANOMALY":305.6786,"EPHEMERIS_TYPE":0,"CLASSIFICATION_TYPE":"U","NORAD_CAT_ID":54235,"ELEMENT_SET_NO":999,"REV_AT_EPOCH":17092,"BSTAR":4.7399629e-5,"MEAN_MOTION_DOT":4.5e-7,"MEAN_MOTION_DDOT":0},{"OBJECT_NAME":"METEOR 1-13","OBJECT_ID":"1972-085A","EPOCH":"2026-03-09T22:44:14.153856","MEAN_MOTION":14.09466436,"ECCENTRICITY":0.00299298,"INCLINATION":81.2693,"RA_OF_ASC_NODE":249.0436,"ARG_OF_PERICENTER":60.6999,"MEAN_ANOMALY":299.7156,"EPHEMERIS_TYPE":0,"CLASSIFICATION_TYPE":"U","NORAD_CAT_ID":6256,"ELEMENT_SET_NO":999,"REV_AT_EPOCH":74089,"BSTAR":0.00011244792,"MEAN_MOTION_DOT":2.1e-6,"MEAN_MOTION_DDOT":0}]
